CCSDS_OMM_VERS = 2.0
CREATION_DATE  = 
ORIGINATOR     = 

OBJECT_NAME    = DELTA 1 R/B
OBJECT_ID      = 1989-089B
CENTER_NAME    = EARTH
REF_FRAME      = TEME
TIME_SYSTEM    = UTC
MEAN_ELEMENT_THEORY = SGP/SGP4

EPOCH          = 2025-10-30T04:21:16.253568
MEAN_MOTION    = 14.50517545
ECCENTRICITY   = .00692867
INCLINATION    = 97.0801
RA_OF_ASC_NODE = 166.3135
ARG_OF_PERICENTER = 173.7785
MEAN_ANOMALY   = 186.4290

EPHEMERIS_TYPE = 0
CLASSIFICATION_TYPE = U
NORAD_CAT_ID   = 20323
ELEMENT_SET_NO = 999
REV_AT_EPOCH   = 87681
BSTAR          = .11970267E-3
MEAN_MOTION_DOT = .448E-5
MEAN_MOTION_DDOT = 0

CCSDS_OMM_VERS = 2.0
CREATION_DATE  = 
ORIGINATOR     = 

OBJECT_NAME    = ARIANE 40 R/B
OBJECT_ID      = 1990-005H
CENTER_NAME    = EARTH
REF_FRAME      = TEME
TIME_SYSTEM    = UTC
MEAN_ELEMENT_THEORY = SGP/SGP4

EPOCH          = 2025-10-30T03:58:09.074784
MEAN_MOTION    = 14.39747265
ECCENTRICITY   = .00092165
INCLINATION    = 98.3303
RA_OF_ASC_NODE = 2.5624
ARG_OF_PERICENTER = 233.2514
MEAN_ANOMALY   = 126.7829

EPHEMERIS_TYPE = 0
CLASSIFICATION_TYPE = U
NORAD_CAT_ID   = 20443
ELEMENT_SET_NO = 999
REV_AT_EPOCH   = 87402
BSTAR          = .14756869E-3
MEAN_MOTION_DOT = .42E-5
MEAN_MOTION_DDOT = 0

CCSDS_OMM_VERS = 2.0
CREATION_DATE  = 
ORIGINATOR     = 

OBJECT_NAME    = DELTA 2 R/B(1)
OBJECT_ID      = 1990-008B
CENTER_NAME    = EARTH
REF_FRAME      = TEME
TIME_SYSTEM    = UTC
MEAN_ELEMENT_THEORY = SGP/SGP4

EPOCH          = 2025-10-30T06:36:54.387072
MEAN_MOTION    = 15.41270991
ECCENTRICITY   = .01183883
INCLINATION    = 35.6074
RA_OF_ASC_NODE = 300.3524
ARG_OF_PERICENTER = 143.3432
MEAN_ANOMALY   = 217.5469

EPHEMERIS_TYPE = 0
CLASSIFICATION_TYPE = U
NORAD_CAT_ID   = 20453
ELEMENT_SET_NO = 999
REV_AT_EPOCH   = 90591
BSTAR          = .74791914E-3
MEAN_MOTION_DOT = .41519E-3
MEAN_MOTION_DDOT = 0

CCSDS_OMM_VERS = 2.0
CREATION_DATE  = 
ORIGINATOR     = 

OBJECT_NAME    = COSMOS 2058
OBJECT_ID      = 1990-010A
CENTER_NAME    = EARTH
REF_FRAME      = TEME
TIME_SYSTEM    = UTC
MEAN_ELEMENT_THEORY = SGP/SGP4

EPOCH          = 2025-10-30T19:45:10.916928
MEAN_MOTION    = 15.09996219
ECCENTRICITY   = .0011498
INCLINATION    = 82.4697
RA_OF_ASC_NODE = 175.2427
ARG_OF_PERICENTER = 60.0796
MEAN_ANOMALY   = 300.1574

EPHEMERIS_TYPE = 0
CLASSIFICATION_TYPE = U
NORAD_CAT_ID   = 20465
ELEMENT_SET_NO = 999
REV_AT_EPOCH   = 92263
BSTAR          = .31193E-3
MEAN_MOTION_DOT = .5101E-4
MEAN_MOTION_DDOT = 0

CCSDS_OMM_VERS = 2.0
CREATION_DATE  = 
ORIGINATOR     = 

OBJECT_NAME    = SL-14 R/B
OBJECT_ID      = 1990-010B
CENTER_NAME    = EARTH
REF_FRAME      = TEME
TIME_SYSTEM    = UTC
MEAN_ELEMENT_THEORY = SGP/SGP4

EPOCH          = 2025-10-30T17:03:36.582912
MEAN_MOTION    = 14.83411520
ECCENTRICITY   = .0020098
INCLINATION    = 82.5054
RA_OF_ASC_NODE = 29.4495
ARG_OF_PERICENTER = 12.6386
MEAN_ANOMALY   = 347.5328

EPHEMERIS_TYPE = 0
CLASSIFICATION_TYPE = U
NORAD_CAT_ID   = 20466
ELEMENT_SET_NO = 999
REV_AT_EPOCH   = 90921
BSTAR          = .76445E-4
MEAN_MOTION_DOT = .653E-5
MEAN_MOTION_DDOT = 0

CCSDS_OMM_VERS = 2.0
CREATION_DATE  = 
ORIGINATOR     = 

OBJECT_NAME    = SL-14 R/B
OBJECT_ID      = 1990-018B
CENTER_NAME    = EARTH
REF_FRAME      = TEME
TIME_SYSTEM    = UTC
MEAN_ELEMENT_THEORY = SGP/SGP4

EPOCH          = 2025-10-30T04:45:51.723648
MEAN_MOTION    = 14.81985930
ECCENTRICITY   = .00170352
INCLINATION    = 82.5224
RA_OF_ASC_NODE = 345.0645
ARG_OF_PERICENTER = 156.7879
MEAN_ANOMALY   = 203.4108

EPHEMERIS_TYPE = 0
CLASSIFICATION_TYPE = U
NORAD_CAT_ID   = 20511
ELEMENT_SET_NO = 999
REV_AT_EPOCH   = 90325
BSTAR          = .68431034E-4
MEAN_MOTION_DOT = .567E-5
MEAN_MOTION_DDOT = 0

CCSDS_OMM_VERS = 2.0
CREATION_DATE  = 
ORIGINATOR     = 

OBJECT_NAME    = HST
OBJECT_ID      = 1990-037B
CENTER_NAME    = EARTH
REF_FRAME      = TEME
TIME_SYSTEM    = UTC
MEAN_ELEMENT_THEORY = SGP/SGP4

EPOCH          = 2025-10-30T00:30:33.514272
MEAN_MOTION    = 15.27218674
ECCENTRICITY   = .00020701
INCLINATION    = 28.4669
RA_OF_ASC_NODE = 209.8759
ARG_OF_PERICENTER = 104.0895
MEAN_ANOMALY   = 255.9930

EPHEMERIS_TYPE = 0
CLASSIFICATION_TYPE = U
NORAD_CAT_ID   = 20580
ELEMENT_SET_NO = 999
REV_AT_EPOCH   = 75330
BSTAR          = .34924536E-3
MEAN_MOTION_DOT = .9815E-4
MEAN_MOTION_DDOT = 0

CCSDS_OMM_VERS = 2.0
CREATION_DATE  = 
ORIGINATOR     = 

OBJECT_NAME    = SL-16 R/B
OBJECT_ID      = 1990-046B
CENTER_NAME    = EARTH
REF_FRAME      = TEME
TIME_SYSTEM    = UTC
MEAN_ELEMENT_THEORY = SGP/SGP4

EPOCH          = 2025-10-30T04:46:46.719840
MEAN_MOTION    = 14.14992062
ECCENTRICITY   = .00128456
INCLINATION    = 71.0000
RA_OF_ASC_NODE = 211.9581
ARG_OF_PERICENTER = 151.0914
MEAN_ANOMALY   = 209.0922

EPHEMERIS_TYPE = 0
CLASSIFICATION_TYPE = U
NORAD_CAT_ID   = 20625
ELEMENT_SET_NO = 999
REV_AT_EPOCH   = 82993
BSTAR          = .63078712E-4
MEAN_MOTION_DOT = .75E-6
MEAN_MOTION_DDOT = 0

CCSDS_OMM_VERS = 2.0
CREATION_DATE  = 
ORIGINATOR     = 

OBJECT_NAME    = COSMOS 2084
OBJECT_ID      = 1990-055A
CENTER_NAME    = EARTH
REF_FRAME      = TEME
TIME_SYSTEM    = UTC
MEAN_ELEMENT_THEORY = SGP/SGP4

EPOCH          = 2025-10-30T16:58:18.872832
MEAN_MOTION    = 15.04620379
ECCENTRICITY   = .0038927
INCLINATION    = 62.7909
RA_OF_ASC_NODE = 58.5766
ARG_OF_PERICENTER = 169.5980
MEAN_ANOMALY   = 190.5934

EPHEMERIS_TYPE = 0
CLASSIFICATION_TYPE = U
NORAD_CAT_ID   = 20663
ELEMENT_SET_NO = 999
REV_AT_EPOCH   = 91675
BSTAR          = .37637E-3
MEAN_MOTION_DOT = .5199E-4
MEAN_MOTION_DDOT = 0

CCSDS_OMM_VERS = 2.0
CREATION_DATE  = 
ORIGINATOR     = 

OBJECT_NAME    = SL-6 R/B(2)
OBJECT_ID      = 1990-055D
CENTER_NAME    = EARTH
REF_FRAME      = TEME
TIME_SYSTEM    = UTC
MEAN_ELEMENT_THEORY = SGP/SGP4

EPOCH          = 2025-10-30T07:40:39.029952
MEAN_MOTION    = 15.02753854
ECCENTRICITY   = .00106952
INCLINATION    = 62.7847
RA_OF_ASC_NODE = 336.9146
ARG_OF_PERICENTER = 269.2209
MEAN_ANOMALY   = 90.7665

EPHEMERIS_TYPE = 0
CLASSIFICATION_TYPE = U
NORAD_CAT_ID   = 20666
ELEMENT_SET_NO = 999
REV_AT_EPOCH   = 91859
BSTAR          = .235435E-3
MEAN_MOTION_DOT = .297E-4
MEAN_MOTION_DDOT = 0

CCSDS_OMM_VERS = 2.0
CREATION_DATE  = 
ORIGINATOR     = 

OBJECT_NAME    = SL-8 R/B
OBJECT_ID      = 1990-078B
CENTER_NAME    = EARTH
REF_FRAME      = TEME
TIME_SYSTEM    = UTC
MEAN_ELEMENT_THEORY = SGP/SGP4

EPOCH          = 2025-10-30T04:41:23.813664
MEAN_MOTION    = 14.83737754
ECCENTRICITY   = .03834832
INCLINATION    = 82.9086
RA_OF_ASC_NODE = 8.1996
ARG_OF_PERICENTER = 91.3385
MEAN_ANOMALY   = 273.1784

EPHEMERIS_TYPE = 0
CLASSIFICATION_TYPE = U
NORAD_CAT_ID   = 20775
ELEMENT_SET_NO = 999
REV_AT_EPOCH   = 78991
BSTAR          = .64931798E-3
MEAN_MOTION_DOT = .20994E-3
MEAN_MOTION_DDOT = 0

CCSDS_OMM_VERS = 2.0
CREATION_DATE  = 
ORIGINATOR     = 

OBJECT_NAME    = SL-8 R/B
OBJECT_ID      = 1991-006B
CENTER_NAME    = EARTH
REF_FRAME      = TEME
TIME_SYSTEM    = UTC
MEAN_ELEMENT_THEORY = SGP/SGP4

EPOCH          = 2025-10-30T19:31:03.351072
MEAN_MOTION    = 13.77480338
ECCENTRICITY   = .0023527
INCLINATION    = 82.9397
RA_OF_ASC_NODE = 266.6463
ARG_OF_PERICENTER = 41.7236
MEAN_ANOMALY   = 334.4428

EPHEMERIS_TYPE = 0
CLASSIFICATION_TYPE = U
NORAD_CAT_ID   = 21088
ELEMENT_SET_NO = 999
REV_AT_EPOCH   = 74619
BSTAR          = .1772E-3
MEAN_MOTION_DOT = .192E-5
MEAN_MOTION_DDOT = 0

