DELTA 1 R/B             
1 20323U 89089B   25303.18143812  .00000448  00000+0  11970-3 0  9991
2 20323  97.0801 166.3135 0069286 173.7785 186.4290 14.50517545876818
ARIANE 40 R/B           
1 20443U 90005H   25303.16538281  .00000420  00000+0  14757-3 0  9996
2 20443  98.3303   2.5624 0009216 233.2514 126.7829 14.39747265874022
DELTA 2 R/B(1)          
1 20453U 90008B   25303.27562948  .00041519  00000+0  74792-3 0  9998
2 20453  35.6074 300.3524 0118388 143.3432 217.5469 15.41270991905914
COSMOS 2058             
1 20465U 90010A   25303.82304302  .00005101  00000+0  31193-3 0  9998
2 20465  82.4697 175.2427 0011498  60.0796 300.1574 15.09996219922637
SL-14 R/B               
1 20466U 90010B   25303.71084008  .00000653  00000+0  76445-4 0  9992
2 20466  82.5054  29.4495 0020098  12.6386 347.5328 14.83411520909214
SL-14 R/B               
1 20511U 90018B   25303.19851532  .00000567  00000+0  68431-4 0  9997
2 20511  82.5224 345.0645 0017035 156.7879 203.4108 14.81985930903255
HST                     
1 20580U 90037B   25303.02122123  .00009815  00000+0  34925-3 0  9998
2 20580  28.4669 209.8759 0002070 104.0895 255.9930 15.27218674753302
SL-16 R/B               
1 20625U 90046B   25303.19915185  .00000075  00000+0  63079-4 0  9996
2 20625  71.0000 211.9581 0012845 151.0914 209.0922 14.14992062829936
COSMOS 2084             
1 20663U 90055A   25303.70716288  .00005199  00000+0  37637-3 0  9990
2 20663  62.7909  58.5766 0038927 169.5980 190.5934 15.04620379916752
SL-6 R/B(2)             
1 20666U 90055D   25303.31989618  .00002970  00000+0  23544-3 0  9995
2 20666  62.7847 336.9146 0010695 269.2209  90.7665 15.02753854918594
SL-8 R/B                
1 20775U 90078B   25303.19541451  .00020994  00000+0  64932-3 0  9998
2 20775  82.9086   8.1996 0383483  91.3385 273.1784 14.83737754789912
SL-8 R/B                
1 21088U 91006B   25303.81323323  .00000192  00000+0  17720-3 0  9994
2 21088  82.9397 266.6463 0023527  41.7236 334.4428 13.77480338746193
